TIANMU-1 11             
1 58645U 23205A   25112.17176027  .00009412  00000+0  42074-3 0  9997
2 58645  97.3770 136.1969 0011517  55.3184 304.9136 15.21475663 73397
TIANMU-1 12             
1 58646U 23205B   25112.18790398  .00009987  00000+0  44562-3 0  9993
2 58646  97.3758 136.0839 0009437  51.1287 309.0789 15.21541843 73388
TIANMU-1 13             
1 58647U 23205C   25112.15297975  .00010481  00000+0  46713-3 0  9995
2 58647  97.3785 136.1677 0009179  32.6615 327.5187 15.21567827 73378
TIANMU-1 14             
1 58648U 23205D   25112.13832274  .00010690  00000+0  47661-3 0  9996
2 58648  97.3715 135.7155 0009881  35.5591 324.6301 15.21545326 73379
TIANMU-1 19             
1 58660U 23208A   25112.21013777  .00013168  00000+0  55748-3 0  9999
2 58660  97.4215 224.8745 0005555  18.9190 341.2252 15.23288924 73075
TIANMU-1 20             
1 58661U 23208B   25112.18423088  .00013859  00000+0  56565-3 0  9991
2 58661  97.4152 225.0676 0008290  25.2001 334.9639 15.24496623 73114
TIANMU-1 21             
1 58662U 23208C   25112.24373510  .00015209  00000+0  58784-3 0  9999
2 58662  97.4194 226.1464 0007753  23.6673 336.4921 15.26304091 73174
TIANMU-1 22             
1 58663U 23208D   25112.19703328  .00013238  00000+0  55993-3 0  9997
2 58663  97.4210 224.9675 0004760  46.4216 313.7416 15.23321906 73083
TIANMU-1 15             
1 58700U 24004A   25112.19920677  .00010743  00000+0  47761-3 0  9994
2 58700  97.4661 295.1253 0008423  54.6690 305.5332 15.21656924 71650
TIANMU-1 16             
1 58701U 24004B   25112.18403087  .00011250  00000+0  50030-3 0  9992
2 58701  97.4594 294.6985 0008782  56.9766 303.2312 15.21632321 71657
TIANMU-1 17             
1 58702U 24004C   25112.17439287  .00010834  00000+0  48339-3 0  9999
2 58702  97.4634 294.9731 0006671  55.3292 304.8572 15.21543305 71644
TIANMU-1 18             
1 58703U 24004D   25112.15291103  .00009730  00000+0  43426-3 0  9996
2 58703  97.4650 295.1032 0006692  47.9852 312.1952 15.21562586 71648
INSAT-3DS               
1 58990U 24033A   25111.91832314 -.00000154  00000+0  00000+0 0  9993
2 58990   0.0789  88.7421 0001700 303.0836 231.1089  1.00271539 42848
METEOR-M2 4             
1 59051U 24039A   25112.17630661  .00000097  00000+0  63221-4 0  9992
2 59051  98.6453  73.2244 0006262 316.7718  43.2968 14.22359283 59418
