[
  {
    "OBJECT_NAME": "TIANMU-1 11",
    "OBJECT_ID": "2023-205A",
    "EPOCH": "2025-04-22T04:07:20.087328",
    "MEAN_MOTION": 15.21475663,
    "ECCENTRICITY": 0.0011517,
    "INCLINATION": 97.377,
    "RA_OF_ASC_NODE": 136.1969,
    "ARG_OF_PERICENTER": 55.3184,
    "MEAN_ANOMALY": 304.9136,
    "EPHEMERIS_TYPE": 0,
    "CLASSIFICATION_TYPE": "U",
    "NORAD_CAT_ID": 58645,
    "ELEMENT_SET_NO": 999,
    "REV_AT_EPOCH": 7339,
    "BSTAR": 0.00042074,
    "MEAN_MOTION_DOT": 0.00009412,
    "MEAN_MOTION_DDOT": 0
  },
  {
    "OBJECT_NAME": "TIANMU-1 12",
    "OBJECT_ID": "2023-205B",
    "EPOCH": "2025-04-22T04:30:34.903872",
    "MEAN_MOTION": 15.21541843,
    "ECCENTRICITY": 0.0009437,
    "INCLINATION": 97.3758,
    "RA_OF_ASC_NODE": 136.0839,
    "ARG_OF_PERICENTER": 51.1287,
    "MEAN_ANOMALY": 309.0789,
    "EPHEMERIS_TYPE": 0,
    "CLASSIFICATION_TYPE": "U",
    "NORAD_CAT_ID": 58646,
    "ELEMENT_SET_NO": 999,
    "REV_AT_EPOCH": 7338,
    "BSTAR": 0.00044562,
    "MEAN_MOTION_DOT": 0.00009987,
    "MEAN_MOTION_DDOT": 0
  },
  {
    "OBJECT_NAME": "TIANMU-1 13",
    "OBJECT_ID": "2023-205C",
    "EPOCH": "2025-04-22T03:40:17.450400",
    "MEAN_MOTION": 15.21567827,
    "ECCENTRICITY": 0.0009179,
    "INCLINATION": 97.3785,
    "RA_OF_ASC_NODE": 136.1677,
    "ARG_OF_PERICENTER": 32.6615,
    "MEAN_ANOMALY": 327.5187,
    "EPHEMERIS_TYPE": 0,
    "CLASSIFICATION_TYPE": "U",
    "NORAD_CAT_ID": 58647,
    "ELEMENT_SET_NO": 999,
    "REV_AT_EPOCH": 7337,
    "BSTAR": 0.00046713,
    "MEAN_MOTION_DOT": 0.00010481,
    "MEAN_MOTION_DDOT": 0
  },
  {
    "OBJECT_NAME": "TIANMU-1 14",
    "OBJECT_ID": "2023-205D",
    "EPOCH": "2025-04-22T03:19:11.084736",
    "MEAN_MOTION": 15.21545326,
    "ECCENTRICITY": 0.0009881,
    "INCLINATION": 97.3715,
    "RA_OF_ASC_NODE": 135.7155,
    "ARG_OF_PERICENTER": 35.5591,
    "MEAN_ANOMALY": 324.6301,
    "EPHEMERIS_TYPE": 0,
    "CLASSIFICATION_TYPE": "U",
    "NORAD_CAT_ID": 58648,
    "ELEMENT_SET_NO": 999,
    "REV_AT_EPOCH": 7337,
    "BSTAR": 0.00047661,
    "MEAN_MOTION_DOT": 0.0001069,
    "MEAN_MOTION_DDOT": 0
  },
  {
    "OBJECT_NAME": "TIANMU-1 19",
    "OBJECT_ID": "2023-208A",
    "EPOCH": "2025-04-22T05:02:35.903328",
    "MEAN_MOTION": 15.23288924,
    "ECCENTRICITY": 0.0005555,
    "INCLINATION": 97.4215,
    "RA_OF_ASC_NODE": 224.8745,
    "ARG_OF_PERICENTER": 18.919,
    "MEAN_ANOMALY": 341.2252,
    "EPHEMERIS_TYPE": 0,
    "CLASSIFICATION_TYPE": "U",
    "NORAD_CAT_ID": 58660,
    "ELEMENT_SET_NO": 999,
    "REV_AT_EPOCH": 7307,
    "BSTAR": 0.00055748,
    "MEAN_MOTION_DOT": 0.00013168,
    "MEAN_MOTION_DDOT": 0
  },
  {
    "OBJECT_NAME": "TIANMU-1 20",
    "OBJECT_ID": "2023-208B",
    "EPOCH": "2025-04-22T04:25:17.548032",
    "MEAN_MOTION": 15.24496623,
    "ECCENTRICITY": 0.000829,
    "INCLINATION": 97.4152,
    "RA_OF_ASC_NODE": 225.0676,
    "ARG_OF_PERICENTER": 25.2001,
    "MEAN_ANOMALY": 334.9639,
    "EPHEMERIS_TYPE": 0,
    "CLASSIFICATION_TYPE": "U",
    "NORAD_CAT_ID": 58661,
    "ELEMENT_SET_NO": 999,
    "REV_AT_EPOCH": 7311,
    "BSTAR": 0.00056565,
    "MEAN_MOTION_DOT": 0.00013859,
    "MEAN_MOTION_DDOT": 0
  },
  {
    "OBJECT_NAME": "TIANMU-1 21",
    "OBJECT_ID": "2023-208C",
    "EPOCH": "2025-04-22T05:50:58.712640",
    "MEAN_MOTION": 15.26304091,
    "ECCENTRICITY": 0.0007753,
    "INCLINATION": 97.4194,
    "RA_OF_ASC_NODE": 226.1464,
    "ARG_OF_PERICENTER": 23.6673,
    "MEAN_ANOMALY": 336.4921,
    "EPHEMERIS_TYPE": 0,
    "CLASSIFICATION_TYPE": "U",
    "NORAD_CAT_ID": 58662,
    "ELEMENT_SET_NO": 999,
    "REV_AT_EPOCH": 7317,
    "BSTAR": 0.00058784,
    "MEAN_MOTION_DOT": 0.00015209,
    "MEAN_MOTION_DDOT": 0
  },
  {
    "OBJECT_NAME": "TIANMU-1 22",
    "OBJECT_ID": "2023-208D",
    "EPOCH": "2025-04-22T04:43:43.675392",
    "MEAN_MOTION": 15.23321906,
    "ECCENTRICITY": 0.000476,
    "INCLINATION": 97.421,
    "RA_OF_ASC_NODE": 224.9675,
    "ARG_OF_PERICENTER": 46.4216,
    "MEAN_ANOMALY": 313.7416,
    "EPHEMERIS_TYPE": 0,
    "CLASSIFICATION_TYPE": "U",
    "NORAD_CAT_ID": 58663,
    "ELEMENT_SET_NO": 999,
    "REV_AT_EPOCH": 7308,
    "BSTAR": 0.00055993,
    "MEAN_MOTION_DOT": 0.00013238,
    "MEAN_MOTION_DDOT": 0
  },
  {
    "OBJECT_NAME": "TIANMU-1 15",
    "OBJECT_ID": "2024-004A",
    "EPOCH": "2025-04-22T04:46:51.464928",
    "MEAN_MOTION": 15.21656924,
    "ECCENTRICITY": 0.0008423,
    "INCLINATION": 97.4661,
    "RA_OF_ASC_NODE": 295.1253,
    "ARG_OF_PERICENTER": 54.669,
    "MEAN_ANOMALY": 305.5332,
    "EPHEMERIS_TYPE": 0,
    "CLASSIFICATION_TYPE": "U",
    "NORAD_CAT_ID": 58700,
    "ELEMENT_SET_NO": 999,
    "REV_AT_EPOCH": 7165,
    "BSTAR": 0.00047761,
    "MEAN_MOTION_DOT": 0.00010743,
    "MEAN_MOTION_DDOT": 0
  },
  {
    "OBJECT_NAME": "TIANMU-1 16",
    "OBJECT_ID": "2024-004B",
    "EPOCH": "2025-04-22T04:25:00.267168",
    "MEAN_MOTION": 15.21632321,
    "ECCENTRICITY": 0.0008782,
    "INCLINATION": 97.4594,
    "RA_OF_ASC_NODE": 294.6985,
    "ARG_OF_PERICENTER": 56.9766,
    "MEAN_ANOMALY": 303.2312,
    "EPHEMERIS_TYPE": 0,
    "CLASSIFICATION_TYPE": "U",
    "NORAD_CAT_ID": 58701,
    "ELEMENT_SET_NO": 999,
    "REV_AT_EPOCH": 7165,
    "BSTAR": 0.0005003,
    "MEAN_MOTION_DOT": 0.0001125,
    "MEAN_MOTION_DDOT": 0
  },
  {
    "OBJECT_NAME": "TIANMU-1 17",
    "OBJECT_ID": "2024-004C",
    "EPOCH": "2025-04-22T04:11:07.543968",
    "MEAN_MOTION": 15.21543305,
    "ECCENTRICITY": 0.0006671,
    "INCLINATION": 97.4634,
    "RA_OF_ASC_NODE": 294.9731,
    "ARG_OF_PERICENTER": 55.3292,
    "MEAN_ANOMALY": 304.8572,
    "EPHEMERIS_TYPE": 0,
    "CLASSIFICATION_TYPE": "U",
    "NORAD_CAT_ID": 58702,
    "ELEMENT_SET_NO": 999,
    "REV_AT_EPOCH": 7164,
    "BSTAR": 0.00048339,
    "MEAN_MOTION_DOT": 0.00010834,
    "MEAN_MOTION_DDOT": 0
  },
  {
    "OBJECT_NAME": "TIANMU-1 18",
    "OBJECT_ID": "2024-004D",
    "EPOCH": "2025-04-22T03:40:11.512992",
    "MEAN_MOTION": 15.21562586,
    "ECCENTRICITY": 0.0006692,
    "INCLINATION": 97.465,
    "RA_OF_ASC_NODE": 295.1032,
    "ARG_OF_PERICENTER": 47.9852,
    "MEAN_ANOMALY": 312.1952,
    "EPHEMERIS_TYPE": 0,
    "CLASSIFICATION_TYPE": "U",
    "NORAD_CAT_ID": 58703,
    "ELEMENT_SET_NO": 999,
    "REV_AT_EPOCH": 7164,
    "BSTAR": 0.00043426,
    "MEAN_MOTION_DOT": 0.0000973,
    "MEAN_MOTION_DDOT": 0
  },
  {
    "OBJECT_NAME": "INSAT-3DS",
    "OBJECT_ID": "2024-033A",
    "EPOCH": "2025-04-21T22:02:23.119296",
    "MEAN_MOTION": 1.00271539,
    "ECCENTRICITY": 0.00017,
    "INCLINATION": 0.0789,
    "RA_OF_ASC_NODE": 88.7421,
    "ARG_OF_PERICENTER": 303.0836,
    "MEAN_ANOMALY": 231.1089,
    "EPHEMERIS_TYPE": 0,
    "CLASSIFICATION_TYPE": "U",
    "NORAD_CAT_ID": 58990,
    "ELEMENT_SET_NO": 999,
    "REV_AT_EPOCH": 4284,
    "BSTAR": 0,
    "MEAN_MOTION_DOT": -0.00000154,
    "MEAN_MOTION_DDOT": 0
  },
  {
    "OBJECT_NAME": "METEOR-M2 4",
    "OBJECT_ID": "2024-039A",
    "EPOCH": "2025-04-22T04:13:52.891104",
    "MEAN_MOTION": 14.22359283,
    "ECCENTRICITY": 0.0006262,
    "INCLINATION": 98.6453,
    "RA_OF_ASC_NODE": 73.2244,
    "ARG_OF_PERICENTER": 316.7718,
    "MEAN_ANOMALY": 43.2968,
    "EPHEMERIS_TYPE": 0,
    "CLASSIFICATION_TYPE": "U",
    "NORAD_CAT_ID": 59051,
    "ELEMENT_SET_NO": 999,
    "REV_AT_EPOCH": 5941,
    "BSTAR": 0.000063221,
    "MEAN_MOTION_DOT": 9.7e-7,
    "MEAN_MOTION_DDOT": 0
  }
]